TIANMU-1 07             
1 57399U 23101A   26065.57454230  .00008352  00000+0  29795-3 0  9991
2 57399  97.2728 118.5929 0004609 142.4105 217.7458 15.29118809145964
STARLINK-36415          
1 67519U 26012AC  26068.08701705  .00035791  00000+0  13051-2 0  9995
2 67519  43.0042 317.4482 0002117 279.6103  80.4510 15.27547014  7675
